[{"OBJECT_NAME":"ALOS (DAICHI)","OBJECT_ID":"2006-002A","EPOCH":"2026-03-20T20:55:08.382720","MEAN_MOTION":14.6984299,"ECCENTRICITY":7.021e-5,"INCLINATION":98.1238,"RA_OF_ASC_NODE":35.7724,"ARG_OF_PERICENTER":85.8225,"MEAN_ANOMALY":274.3061,"EPHEMERIS_TYPE":0,"CLASSIFICATION_TYPE":"U","NORAD_CAT_ID":28931,"ELEMENT_SET_NO":999,"REV_AT_EPOCH":7512,"BSTAR":0.00020029749,"MEAN_MOTION_DOT":1.147e-5,"MEAN_MOTION_DDOT":0},{"OBJECT_NAME":"H-2A R/B","OBJECT_ID":"2006-002B","EPOCH":"2026-03-20T22:59:20.679936","MEAN_MOTION":15.16649246,"ECCENTRICITY":0.00522154,"INCLINATION":98.2435,"RA_OF_ASC_NODE":227.9538,"ARG_OF_PERICENTER":202.3887,"MEAN_ANOMALY":157.5065,"EPHEMERIS_TYPE":0,"CLASSIFICATION_TYPE":"U","NORAD_CAT_ID":28932,"ELEMENT_SET_NO":999,"REV_AT_EPOCH":9614,"BSTAR":0.00052069198,"MEAN_MOTION_DOT":0.00010474,"MEAN_MOTION_DDOT":0},{"OBJECT_NAME":"RESURS-DK 1","OBJECT_ID":"2006-021A","EPOCH":"2026-03-20T18:37:46.962336","MEAN_MOTION":15.12817965,"ECCENTRICITY":7.822e-5,"INCLINATION":69.9338,"RA_OF_ASC_NODE":208.3434,"ARG_OF_PERICENTER":127.4073,"MEAN_ANOMALY":232.7165,"EPHEMERIS_TYPE":0,"CLASSIFICATION_TYPE":"U","NORAD_CAT_ID":29228,"ELEMENT_SET_NO":999,"REV_AT_EPOCH":8920,"BSTAR":0.00017014071,"MEAN_MOTION_DOT":2.889e-5,"MEAN_MOTION_DDOT":0},{"OBJECT_NAME":"CZ-4B R/B","OBJECT_ID":"2006-046C","EPOCH":"2026-03-20T08:40:10.361856","MEAN_MOTION":15.17003904,"ECCENTRICITY":0.00320297,"INCLINATION":97.5569,"RA_OF_ASC_NODE":124.2409,"ARG_OF_PERICENTER":228.6255,"MEAN_ANOMALY":131.2224,"EPHEMERIS_TYPE":0,"CLASSIFICATION_TYPE":"U","NORAD_CAT_ID":29507,"ELEMENT_SET_NO":999,"REV_AT_EPOCH":6166,"BSTAR":0.00018056966,"MEAN_MOTION_DOT":3.544e-5,"MEAN_MOTION_DDOT":0},{"OBJECT_NAME":"CZ-2C R/B","OBJECT_ID":"2007-010B","EPOCH":"2026-03-20T22:15:34.030080","MEAN_MOTION":14.20250037,"ECCENTRICITY":0.00578616,"INCLINATION":98.3989,"RA_OF_ASC_NODE":192.6435,"ARG_OF_PERICENTER":261.2951,"MEAN_ANOMALY":98.167,"EPHEMERIS_TYPE":0,"CLASSIFICATION_TYPE":"U","NORAD_CAT_ID":31114,"ELEMENT_SET_NO":999,"REV_AT_EPOCH":98131,"BSTAR":7.1761564e-5,"MEAN_MOTION_DOT":1.14e-6,"MEAN_MOTION_DDOT":0},{"OBJECT_NAME":"COSMO-SKYMED 1","OBJECT_ID":"2007-023A","EPOCH":"2026-03-20T23:07:56.783424","MEAN_MOTION":14.96619216,"ECCENTRICITY":0.00013483,"INCLINATION":97.888,"RA_OF_ASC_NODE":271.0879,"ARG_OF_PERICENTER":86.9856,"MEAN_ANOMALY":273.1519,"EPHEMERIS_TYPE":0,"CLASSIFICATION_TYPE":"U","NORAD_CAT_ID":31598,"ELEMENT_SET_NO":999,"REV_AT_EPOCH":1659,"BSTAR":0.00023123832,"MEAN_MOTION_DOT":2.575e-5,"MEAN_MOTION_DDOT":0},{"OBJECT_NAME":"COSMOS 2428","OBJECT_ID":"2007-029A","EPOCH":"2026-03-20T10:29:29.858496","MEAN_MOTION":14.12947533,"ECCENTRICITY":0.0009533,"INCLINATION":70.9441,"RA_OF_ASC_NODE":180.7865,"ARG_OF_PERICENTER":266.0902,"MEAN_ANOMALY":93.9129,"EPHEMERIS_TYPE":0,"CLASSIFICATION_TYPE":"U","NORAD_CAT_ID":31792,"ELEMENT_SET_NO":999,"REV_AT_EPOCH":96561,"BSTAR":1.7400902e-5,"MEAN_MOTION_DOT":-1.5e-7,"MEAN_MOTION_DDOT":0},{"OBJECT_NAME":"SL-16 R/B","OBJECT_ID":"2007-029B","EPOCH":"2026-03-20T23:14:31.007616","MEAN_MOTION":14.14839927,"ECCENTRICITY":0.00023839,"INCLINATION":70.9757,"RA_OF_ASC_NODE":148.6774,"ARG_OF_PERICENTER":276.4533,"MEAN_ANOMALY":256.3556,"EPHEMERIS_TYPE":0,"CLASSIFICATION_TYPE":"U","NORAD_CAT_ID":31793,"ELEMENT_SET_NO":999,"REV_AT_EPOCH":96696,"BSTAR":0.00020465616,"MEAN_MOTION_DOT":3.47e-6,"MEAN_MOTION_DDOT":0},{"OBJECT_NAME":"KORONAS-FOTON","OBJECT_ID":"2009-003A","EPOCH":"2026-03-20T21:58:09.323616","MEAN_MOTION":15.4358214,"ECCENTRICITY":0.00117929,"INCLINATION":82.4269,"RA_OF_ASC_NODE":264.2027,"ARG_OF_PERICENTER":113.0729,"MEAN_ANOMALY":247.1763,"EPHEMERIS_TYPE":0,"CLASSIFICATION_TYPE":"U","NORAD_CAT_ID":33504,"ELEMENT_SET_NO":999,"REV_AT_EPOCH":94747,"BSTAR":0.00028282874,"MEAN_MOTION_DOT":0.0001278,"MEAN_MOTION_DDOT":0},{"OBJECT_NAME":"CZ-2C R/B","OBJECT_ID":"2011-030B","EPOCH":"2026-03-20T21:26:30.719904","MEAN_MOTION":14.81261278,"ECCENTRICITY":0.00514946,"INCLINATION":97.8564,"RA_OF_ASC_NODE":36.9338,"ARG_OF_PERICENTER":315.2259,"MEAN_ANOMALY":107.4985,"EPHEMERIS_TYPE":0,"CLASSIFICATION_TYPE":"U","NORAD_CAT_ID":37731,"ELEMENT_SET_NO":999,"REV_AT_EPOCH":79175,"BSTAR":0.00017422771,"MEAN_MOTION_DOT":1.334e-5,"MEAN_MOTION_DDOT":0},{"OBJECT_NAME":"H-2A R/B","OBJECT_ID":"2012-025E","EPOCH":"2026-03-20T21:42:16.133760","MEAN_MOTION":14.95240565,"ECCENTRICITY":0.00430866,"INCLINATION":98.4748,"RA_OF_ASC_NODE":47.85,"ARG_OF_PERICENTER":276.3217,"MEAN_ANOMALY":83.3095,"EPHEMERIS_TYPE":0,"CLASSIFICATION_TYPE":"U","NORAD_CAT_ID":38341,"ELEMENT_SET_NO":999,"REV_AT_EPOCH":74989,"BSTAR":0.00026147436,"MEAN_MOTION_DOT":2.859e-5,"MEAN_MOTION_DDOT":0},{"OBJECT_NAME":"SHIJIAN-16 (SJ-16)","OBJECT_ID":"2013-057A","EPOCH":"2026-03-20T23:00:07.291008","MEAN_MOTION":14.92387769,"ECCENTRICITY":0.00152776,"INCLINATION":74.974,"RA_OF_ASC_NODE":163.7573,"ARG_OF_PERICENTER":83.4985,"MEAN_ANOMALY":276.7942,"EPHEMERIS_TYPE":0,"CLASSIFICATION_TYPE":"U","NORAD_CAT_ID":39358,"ELEMENT_SET_NO":999,"REV_AT_EPOCH":67318,"BSTAR":6.2034071e-5,"MEAN_MOTION_DOT":6.07e-6,"MEAN_MOTION_DDOT":0},{"OBJECT_NAME":"SL-4 R/B","OBJECT_ID":"2014-021B","EPOCH":"2026-03-20T22:11:41.547552","MEAN_MOTION":15.39525382,"ECCENTRICITY":0.00966071,"INCLINATION":51.6051,"RA_OF_ASC_NODE":282.4525,"ARG_OF_PERICENTER":143.8989,"MEAN_ANOMALY":216.8569,"EPHEMERIS_TYPE":0,"CLASSIFICATION_TYPE":"U","NORAD_CAT_ID":39679,"ELEMENT_SET_NO":999,"REV_AT_EPOCH":65800,"BSTAR":0.00031858593,"MEAN_MOTION_DOT":0.0001455,"MEAN_MOTION_DDOT":0},{"OBJECT_NAME":"ALOS-2","OBJECT_ID":"2014-029A","EPOCH":"2026-03-20T22:41:36.386592","MEAN_MOTION":14.79410637,"ECCENTRICITY":0.00017579,"INCLINATION":97.9196,"RA_OF_ASC_NODE":178.3793,"ARG_OF_PERICENTER":109.6786,"MEAN_ANOMALY":250.4616,"EPHEMERIS_TYPE":0,"CLASSIFICATION_TYPE":"U","NORAD_CAT_ID":39766,"ELEMENT_SET_NO":999,"REV_AT_EPOCH":63853,"BSTAR":8.3097208e-5,"MEAN_MOTION_DOT":5.68e-6,"MEAN_MOTION_DDOT":0},{"OBJECT_NAME":"YAOGAN-29","OBJECT_ID":"2015-069A","EPOCH":"2026-03-20T22:15:21.638592","MEAN_MOTION":14.83006084,"ECCENTRICITY":0.00011478,"INCLINATION":98.0124,"RA_OF_ASC_NODE":108.3858,"ARG_OF_PERICENTER":19.9401,"MEAN_ANOMALY":340.1857,"EPHEMERIS_TYPE":0,"CLASSIFICATION_TYPE":"U","NORAD_CAT_ID":41038,"ELEMENT_SET_NO":999,"REV_AT_EPOCH":55754,"BSTAR":3.4279e-7,"MEAN_MOTION_DOT":-5.1e-7,"MEAN_MOTION_DDOT":0},{"OBJECT_NAME":"ASTRO-H (HITOMI)","OBJECT_ID":"2016-012A","EPOCH":"2026-03-20T20:54:39.400704","MEAN_MOTION":15.10072583,"ECCENTRICITY":0.0009612,"INCLINATION":30.9992,"RA_OF_ASC_NODE":284.387,"ARG_OF_PERICENTER":83.5875,"MEAN_ANOMALY":276.5858,"EPHEMERIS_TYPE":0,"CLASSIFICATION_TYPE":"U","NORAD_CAT_ID":41337,"ELEMENT_SET_NO":999,"REV_AT_EPOCH":55392,"BSTAR":0.00015946662,"MEAN_MOTION_DOT":2.757e-5,"MEAN_MOTION_DDOT":0}]
