ALOS (DAICHI)           
1 28931U 06002A   26079.87162480  .00001147  00000+0  20030-3 0  9991
2 28931  98.1238  35.7724 0000702  85.8225 274.3061 14.69842990 75123
H-2A R/B                
1 28932U 06002B   26079.95787824  .00010474  00000+0  52069-3 0  9996
2 28932  98.2435 227.9538 0052215 202.3887 157.5065 15.16649246 96141
RESURS-DK 1             
1 29228U 06021A   26079.77623799  .00002889  00000+0  17014-3 0  9998
2 29228  69.9338 208.3434 0000782 127.4073 232.7165 15.12817965 89208
CZ-4B R/B               
1 29507U 06046C   26079.36123104  .00003544  00000+0  18057-3 0  9992
2 29507  97.5569 124.2409 0032029 228.6255 131.2224 15.17003904 61668
CZ-2C R/B               
1 31114U 07010B   26079.92747720  .00000114  00000+0  71762-4 0  9992
2 31114  98.3989 192.6435 0057861 261.2951  98.1670 14.20250037981318
COSMO-SKYMED 1          
1 31598U 07023A   26079.96385166  .00002575  00000+0  23124-3 0  9999
2 31598  97.8880 271.0879 0001348  86.9856 273.1519 14.96619216 16594
COSMOS 2428             
1 31792U 07029A   26079.43715114 -.00000015  00000+0  17401-4 0  9993
2 31792  70.9441 180.7865 0009533 266.0902  93.9129 14.12947533965618
SL-16 R/B               
1 31793U 07029B   26079.96841444  .00000347  00000+0  20466-3 0  9999
2 31793  70.9757 148.6774 0002383 276.4533 256.3556 14.14839927966969
KORONAS-FOTON           
1 33504U 09003A   26079.91538569  .00012780  00000+0  28283-3 0  9990
2 33504  82.4269 264.2027 0011792 113.0729 247.1763 15.43582140947478
CZ-2C R/B               
1 37731U 11030B   26079.89341111  .00001334  00000+0  17423-3 0  9998
2 37731  97.8564  36.9338 0051494 315.2259 107.4985 14.81261278791757
H-2A R/B                
1 38341U 12025E   26079.90435340  .00002859  00000+0  26147-3 0  9997
2 38341  98.4748  47.8500 0043086 276.3217  83.3095 14.95240565749890
SHIJIAN-16 (SJ-16)      
1 39358U 13057A   26079.95841772  .00000607  00000+0  62034-4 0  9992
2 39358  74.9740 163.7573 0015277  83.4985 276.7942 14.92387769673180
SL-4 R/B                
1 39679U 14021B   26079.92478643  .00014550  00000+0  31859-3 0  9992
2 39679  51.6051 282.4525 0096607 143.8989 216.8569 15.39525382658001
ALOS-2                  
1 39766U 14029A   26079.94556003  .00000568  00000+0  83097-4 0  9992
2 39766  97.9196 178.3793 0001757 109.6786 250.4616 14.79410637638530
YAOGAN-29               
1 41038U 15069A   26079.92733378 -.00000051  00000+0  34279-6 0  9990
2 41038  98.0124 108.3858 0001147  19.9401 340.1857 14.83006084557540
ASTRO-H (HITOMI)        
1 41337U 16012A   26079.87128936  .00002757  00000+0  15947-3 0  9995
2 41337  30.9992 284.3870 0009612  83.5875 276.5858 15.10072583553925
